{
  "type": "FeatureCollection",
  "features": [
    {
      "type": "Feature",
      "properties": {
        "norad_id": 35045,
        "name": "COSMOS 2251 DEB",
        "group": "cosmos-2251-debris",
        "lat": -66.96959558201311,
        "lon": -10.370673206245328,
        "alt_km": 768.7890952067255,
        "timestamp": "2025-12-23T20:42:37.471946+00:00",
        "meta_object_name": "COSMOS 2251 DEB",
        "meta_object_id": "1993-036AHJ",
        "meta_epoch": "2025-12-22T19:20:11.323968",
        "meta_mean_motion": 14.00407667,
        "meta_eccentricity": 0.01839618,
        "meta_inclination": 73.7191,
        "meta_ra_of_asc_node": 34.9254,
        "meta_arg_of_pericenter": 275.5727,
        "meta_mean_anomaly": 82.445,
        "meta_ephemeris_type": 0,
        "meta_classification_type": "U",
        "meta_norad_cat_id": 35045,
        "meta_element_set_no": 999,
        "meta_rev_at_epoch": 84784,
        "meta_bstar": 0.00060913672,
        "meta_mean_motion_dot": 1.018e-05,
        "meta_mean_motion_ddot": 0,
        "tle_line1": "1 35045U 93036AHJ 25356.80568662  .00001018  00000+0  60914-3 0  9992",
        "tle_line2": "2 35045  73.7191  34.9254 0183961 275.5727  82.4450 14.00407667847846"
      },
      "geometry": {
        "type": "Point",
        "coordinates": [
          -10.370673206245328,
          -66.96959558201311
        ]
      }
    },
    {
      "type": "Feature",
      "properties": {
        "norad_id": 35060,
        "name": "COSMOS 2251 DEB",
        "group": "cosmos-2251-debris",
        "lat": 39.55487345657124,
        "lon": -122.59643887063936,
        "alt_km": 750.5342998529004,
        "timestamp": "2025-12-23T20:42:37.471956+00:00",
        "meta_object_name": "COSMOS 2251 DEB",
        "meta_object_id": "1993-036AHP",
        "meta_epoch": "2025-12-17T09:37:48.798336",
        "meta_mean_motion": 14.41611034,
        "meta_eccentricity": 0.00186104,
        "meta_inclination": 74.0362,
        "meta_ra_of_asc_node": 235.6937,
        "meta_arg_of_pericenter": 321.6138,
        "meta_mean_anomaly": 38.3692,
        "meta_ephemeris_type": 0,
        "meta_classification_type": "U",
        "meta_norad_cat_id": 35060,
        "meta_element_set_no": 999,
        "meta_rev_at_epoch": 87309,
        "meta_bstar": 0.00026105938,
        "meta_mean_motion_dot": 8.25e-06,
        "meta_mean_motion_ddot": 0,
        "tle_line1": "1 35060U 93036AHP 25351.40125924  .00000825  00000+0  26106-3 0  9990",
        "tle_line2": "2 35060  74.0362 235.6937 0018610 321.6138  38.3692 14.41611034873096"
      },
      "geometry": {
        "type": "Point",
        "coordinates": [
          -122.59643887063936,
          39.55487345657124
        ]
      }
    },
    {
      "type": "Feature",
      "properties": {
        "norad_id": 35061,
        "name": "COSMOS 2251 DEB",
        "group": "cosmos-2251-debris",
        "lat": -68.73724225287556,
        "lon": 151.5597224965807,
        "alt_km": 694.7553939767804,
        "timestamp": "2025-12-23T20:42:37.471966+00:00",
        "meta_object_name": "COSMOS 2251 DEB",
        "meta_object_id": "1993-036AHQ",
        "meta_epoch": "2025-12-22T19:00:50.101056",
        "meta_mean_motion": 14.67906168,
        "meta_eccentricity": 0.00395999,
        "meta_inclination": 74.0464,
        "meta_ra_of_asc_node": 286.3095,
        "meta_arg_of_pericenter": 34.3497,
        "meta_mean_anomaly": 326.0221,
        "meta_ephemeris_type": 0,
        "meta_classification_type": "U",
        "meta_norad_cat_id": 35061,
        "meta_element_set_no": 999,
        "meta_rev_at_epoch": 88722,
        "meta_bstar": 0.00074768176,
        "meta_mean_motion_dot": 4.298e-05,
        "meta_mean_motion_ddot": 0,
        "tle_line1": "1 35061U 93036AHQ 25356.79224654  .00004298  00000+0  74768-3 0  9993",
        "tle_line2": "2 35061  74.0464 286.3095 0039599  34.3497 326.0221 14.67906168887221"
      },
      "geometry": {
        "type": "Point",
        "coordinates": [
          151.5597224965807,
          -68.73724225287556
        ]
      }
    },
    {
      "type": "Feature",
      "properties": {
        "norad_id": 35062,
        "name": "COSMOS 2251 DEB",
        "group": "cosmos-2251-debris",
        "lat": -42.930864675970476,
        "lon": 57.90508307842337,
        "alt_km": 858.739775956692,
        "timestamp": "2025-12-23T20:42:37.471976+00:00",
        "meta_object_name": "COSMOS 2251 DEB",
        "meta_object_id": "1993-036AHR",
        "meta_epoch": "2025-12-20T22:03:28.302048",
        "meta_mean_motion": 14.22993492,
        "meta_eccentricity": 0.0126453,
        "meta_inclination": 74.0793,
        "meta_ra_of_asc_node": 78.5797,
        "meta_arg_of_pericenter": 75.845,
        "meta_mean_anomaly": 285.6708,
        "meta_ephemeris_type": 0,
        "meta_classification_type": "U",
        "meta_norad_cat_id": 35062,
        "meta_element_set_no": 999,
        "meta_rev_at_epoch": 85615,
        "meta_bstar": 0.0011493,
        "meta_mean_motion_dot": 2.786e-05,
        "meta_mean_motion_ddot": 0,
        "tle_line1": "1 35062U 93036AHR 25354.91907757  .00002786  00000+0  11493-2 0  9993",
        "tle_line2": "2 35062  74.0793  78.5797 0126453  75.8450 285.6708 14.22993492856157"
      },
      "geometry": {
        "type": "Point",
        "coordinates": [
          57.90508307842337,
          -42.930864675970476
        ]
      }
    },
    {
      "type": "Feature",
      "properties": {
        "norad_id": 35065,
        "name": "COSMOS 2251 DEB",
        "group": "cosmos-2251-debris",
        "lat": -13.5403443396923,
        "lon": -2.468390865469302,
        "alt_km": 746.9037701847246,
        "timestamp": "2025-12-23T20:42:37.471986+00:00",
        "meta_object_name": "COSMOS 2251 DEB",
        "meta_object_id": "1993-036AHU",
        "meta_epoch": "2025-12-19T06:12:25.656192",
        "meta_mean_motion": 14.4574331,
        "meta_eccentricity": 0.0020018,
        "meta_inclination": 74.0185,
        "meta_ra_of_asc_node": 182.1668,
        "meta_arg_of_pericenter": 306.5523,
        "meta_mean_anomaly": 53.3791,
        "meta_ephemeris_type": 0,
        "meta_classification_type": "U",
        "meta_norad_cat_id": 35065,
        "meta_element_set_no": 999,
        "meta_rev_at_epoch": 68445,
        "meta_bstar": 0.00028971,
        "meta_mean_motion_dot": 1.002e-05,
        "meta_mean_motion_ddot": 0,
        "tle_line1": "1 35065U 93036AHU 25353.25863028  .00001002  00000+0  28971-3 0  9994",
        "tle_line2": "2 35065  74.0185 182.1668 0020018 306.5523  53.3791 14.45743310684450"
      },
      "geometry": {
        "type": "Point",
        "coordinates": [
          -2.468390865469302,
          -13.5403443396923
        ]
      }
    },
    {
      "type": "Feature",
      "properties": {
        "norad_id": 35071,
        "name": "COSMOS 2251 DEB",
        "group": "cosmos-2251-debris",
        "lat": -26.16326646303901,
        "lon": -21.299077618002435,
        "alt_km": 606.5363651526723,
        "timestamp": "2025-12-23T20:42:37.471996+00:00",
        "meta_object_name": "COSMOS 2251 DEB",
        "meta_object_id": "1993-036AJA",
        "meta_epoch": "2025-12-23T03:49:38.502624",
        "meta_mean_motion": 15.03640344,
        "meta_eccentricity": 0.00685241,
        "meta_inclination": 73.9316,
        "meta_ra_of_asc_node": 152.0069,
        "meta_arg_of_pericenter": 45.3397,
        "meta_mean_anomaly": 315.3347,
        "meta_ephemeris_type": 0,
        "meta_classification_type": "U",
        "meta_norad_cat_id": 35071,
        "meta_element_set_no": 999,
        "meta_rev_at_epoch": 67693,
        "meta_bstar": 0.00067222607,
        "meta_mean_motion_dot": 9.658e-05,
        "meta_mean_motion_ddot": 0,
        "tle_line1": "1 35071U 93036AJA 25357.15947341  .00009658  00000+0  67223-3 0  9993",
        "tle_line2": "2 35071  73.9316 152.0069 0068524  45.3397 315.3347 15.03640344676933"
      },
      "geometry": {
        "type": "Point",
        "coordinates": [
          -21.299077618002435,
          -26.16326646303901
        ]
      }
    },
    {
      "type": "Feature",
      "properties": {
        "norad_id": 35073,
        "name": "COSMOS 2251 DEB",
        "group": "cosmos-2251-debris",
        "lat": -31.332150736481566,
        "lon": 137.9437580503673,
        "alt_km": 575.7549227490126,
        "timestamp": "2025-12-23T20:42:37.472006+00:00",
        "meta_object_name": "COSMOS 2251 DEB",
        "meta_object_id": "1993-036AJC",
        "meta_epoch": "2025-12-23T03:46:29.186400",
        "meta_mean_motion": 15.01345149,
        "meta_eccentricity": 0.00112484,
        "meta_inclination": 74.0021,
        "meta_ra_of_asc_node": 309.3244,
        "meta_arg_of_pericenter": 51.087,
        "meta_mean_anomaly": 309.1319,
        "meta_ephemeris_type": 0,
        "meta_classification_type": "U",
        "meta_norad_cat_id": 35073,
        "meta_element_set_no": 999,
        "meta_rev_at_epoch": 67635,
        "meta_bstar": 0.0033350796,
        "meta_mean_motion_dot": 0.00043256,
        "meta_mean_motion_ddot": 0,
        "tle_line1": "1 35073U 93036AJC 25357.15728225  .00043256  00000+0  33351-2 0  9999",
        "tle_line2": "2 35073  74.0021 309.3244 0011248  51.0870 309.1319 15.01345149676352"
      },
      "geometry": {
        "type": "Point",
        "coordinates": [
          137.9437580503673,
          -31.332150736481566
        ]
      }
    }
  ]
}